#*******************************************************************************
#Ephemeris / MAIL_REQUEST Thu Oct 15 09:24:13 2015 Pasadena, USA  / Horizons   
#*******************************************************************************
#Target body name: Spitzer Space Telescope (-79)   {source: MONTE Difference Line Ta}
#Center body name: Earth (399)                     {source: DE-0431LE-0431}
#Center-site name: GEOCENTRIC
#*******************************************************************************
#Start time      : A.D. 2013-Jan-01 10:00:00.0000 UT     
#Stop  time      : A.D. 2016-Dec-31 00:00:00.0000 UT     
#Step-size       : 1440 minutes
#*******************************************************************************
#Target pole/equ : No model available
#Target radii    : (unavailable)                                               
#Center geodetic : 0.00000000,0.00000000,0.0000000 {E-lon(deg),Lat(deg),Alt(km)}
#Center cylindric: 0.00000000,0.00000000,0.0000000 {E-lon(deg),Dxy(km),Dz(km)}
#Center pole/equ : High-precision EOP model        {East-longitude +}
#Center radii    : 6378.1 x 6378.1 x 6356.8 km     {Equator, meridian, pole}   
#Target primary  : Earth
#Vis. interferer : MOON (R_eq= 1737.400) km        {source: DE-0431LE-0431}
#Rel. light bend : Sun, EARTH                      {source: DE-0431LE-0431}
#Rel. lght bnd GM: 1.3271E+11, 3.9860E+05 km^3/s^2                             
#Atmos refraction: NO (AIRLESS)
#RA format       : DEG
#Time format     : JD 
#EOP file        : eop.151014.p160105                                          
#EOP coverage    : DATA-BASED 1962-JAN-20 TO 2015-OCT-14. PREDICTS-> 2016-JAN-04
#Units conversion: 1 au= 149597870.700 km, c= 299792.458 km/s, 1 day= 86400.0 s
#Table cut-offs 1: Elevation (-90.0deg=NO ),Airmass (>38.000=NO), Daylight (NO )
#Table cut-offs 2: Solar Elongation (  0.0,180.0=NO ),Local Hour Angle( 0.0=NO )
#*****************************************************************************************************************************************************************************************************************************************************************************************
#Date_________JDUT     R.A._(J2000.0)_DEC. R.A._(a-appar)_DEC. dRA*cosD d(DEC)/dt a-mass mag_ex   Illu% hEcl-Lon hEcl-Lat               r        rdot            delta      deldot   1-way_LT   VmagSn   VmagOb    S-O-T /r    S-T-O  T-O-M/Illu% Cnst Tru_Anom      phi  PAB-LON  PAB-LAT
#*****************************************************************************************************************************************************************************************************************************************************************************************
#$$SOE
2456983.916666667     291.69794 -21.61121  1.32012211815794  
2456984.916666667     292.73865 -21.45048  1.32087838853618  
2456985.916666667     293.77704 -21.28334  1.32163781401965  
2456986.916666667     294.81303 -21.10987  1.32240004864498  
2456987.916666667     295.84654 -20.93014  1.32316481221237  
2456988.916666667     296.87749 -20.74423  1.32393190190225  
2456989.916666667     297.90583 -20.55221  1.32470120232586  
2456990.916666667     298.93147 -20.35416  1.32547268161038  
2456991.916666667     299.95437 -20.15018  1.32624638318867  
2456992.916666667     300.97444 -19.94032  1.32702032974752  
2456993.916666667     301.99168 -19.72469  1.32779883587165  
2456994.916666667     303.00605 -19.50336  1.32857999333660  
2456995.916666667     304.01749 -19.27644  1.32936397978826  
2456996.916666667     305.02599 -19.04398  1.33015095879115  
2456997.916666667     306.03154 -18.80610  1.33094105939553  
2456998.916666667     307.03412 -18.56287  1.33173436284045  
2456999.916666667     308.03372 -18.31438  1.33253089958132  
2457000.916666667     309.03035 -18.06072  1.33333064231271  
2457001.916666667     310.02402 -17.80199  1.33413350927293  
2457002.916666667     311.01471 -17.53826  1.33493936960147  
2457003.916666667     312.00246 -17.26964  1.33574804958111  
2457004.916666667     312.98726 -16.99622  1.33655933751984  
2457005.916666667     313.96914 -16.71809  1.33737298725273  
2457006.916666667     314.94811 -16.43534  1.33818871978465  
2457007.916666667     315.92419 -16.14808  1.33900622247330  
2457008.916666667     316.89741 -15.85639  1.33982514649066  
2457009.916666667     317.86779 -15.56038  1.34064510518789  
2457010.916666667     318.83536 -15.26013  1.34146567525914  
2457011.916666667     319.80015 -14.95576  1.34228639757914  
2457012.916666667     320.76217 -14.64735  1.34310679142898  
2457013.916666667     321.72146 -14.33501  1.34392637373871  
2457014.916666667     322.67805 -14.01884  1.34474468560779  
2457015.916666667     323.63195 -13.69895  1.34556132217004  
2457016.916666667     324.58319 -13.37544  1.34637595866441  
2457017.916666667     325.53181 -13.04840  1.34718836628946  
2457018.916666667     326.47782 -12.71795  1.34799841572711  
2457019.916666667     327.42126 -12.38419  1.34880606885332  
2457020.916666667     328.36216 -12.04722  1.34961136271256  
2457021.916666667     329.30057 -11.70714  1.35041438990010  
2457022.916666667     330.23654 -11.36406  1.35121527533697  
2457023.916666667     331.17022 -11.01813  1.35201685588098  
2457024.916666667     332.10146 -10.66934  1.35281391654413  
2457025.916666667     333.03041 -10.31784  1.35360927026388  
2457026.916666667     333.95716  -9.96373  1.35440303090386  
2457027.916666667     334.88175  -9.60711  1.35519528044337  
2457028.916666667     335.80428  -9.24808  1.35598606273714  
2457029.916666667     336.72481  -8.88673  1.35677538037898  
2457030.916666667     337.64341  -8.52315  1.35756319363353  
2457031.916666667     338.56017  -8.15745  1.35834942183281  
2457032.916666667     339.47516  -7.78971  1.35913394617818  
2457033.916666667     340.38846  -7.42004  1.35991661138842  
2457034.916666667     341.30016  -7.04853  1.36069722579165  
2457035.916666667     342.21033  -6.67527  1.36147556215527  
2457036.916666667     343.11906  -6.30035  1.36225135476605  
2457037.916666667     344.02644  -5.92388  1.36302429361734  
2457038.916666667     344.93253  -5.54595  1.36379402307615  
2457039.916666667     345.83743  -5.16664  1.36456013797713  
2457040.916666667     346.74121  -4.78607  1.36532218594669  
2457041.916666667     347.64396  -4.40432  1.36607967927540  
2457042.916666667     348.54574  -4.02150  1.36683211949831  
2457043.916666667     349.44663  -3.63770  1.36757902789788  
2457044.916666667     350.34670  -3.25302  1.36831998472950  
2457045.916666667     351.24602  -2.86756  1.36905466132389  
2457046.916666667     352.14464  -2.48142  1.36978283836281  
2457047.916666667     353.04264  -2.09471  1.37050440655856  
2457048.916666667     353.94008  -1.70752  1.37121935264598  
2457049.916666667     354.83702  -1.31995  1.37192773766634  
2457050.916666667     355.73355  -0.93211  1.37262967338172  
2457051.916666667     356.62974  -0.54407  1.37332530190577  
2457052.916666667     357.52567  -0.15596  1.37401477994199  
2457053.916666667     358.42142   0.23215  1.37469826662192  
2457054.916666667     359.31704   0.62015  1.37537524737669  
2457055.916666667       0.21267   1.00796  1.37604719419437  
2457056.916666667       1.10837   1.39548  1.37671355826074  
2457057.916666667       2.00422   1.78262  1.37737443299784  
2457058.916666667       2.90032   2.16929  1.37802988291884  
2457059.916666667       3.79676   2.55538  1.37867994084948  
2457060.916666667       4.69361   2.94082  1.37932460676243  
2457061.916666667       5.59098   3.32550  1.37996384601472  
2457062.916666667       6.48895   3.70934  1.38059758870424  
2457063.916666667       7.38761   4.09225  1.38122572845826  
2457064.916666667       8.28705   4.47413  1.38184811959699  
2457065.916666667       9.18736   4.85488  1.38246457327987  
2457066.916666667      10.08863   5.23443  1.38307485238308  
2457067.916666667      10.99093   5.61267  1.38367866551606  
2457068.916666667      11.89436   5.98952  1.38427566301327  
2457069.916666667      12.79899   6.36487  1.38486543883268  
2457070.916666667      13.70490   6.73864  1.38544754200389  
2457071.916666667      14.61217   7.11073  1.38602150094427  
2457072.916666667      15.52086   7.48104  1.38658686219226  
2457073.916666667      16.43103   7.84947  1.38714323134464  
2457074.916666667      17.34274   8.21592  1.38769030952368  
2457075.916666667      18.25604   8.58030  1.38822791458088  
2457076.916666667      19.17098   8.94250  1.38875597407889  
2457077.916666667      20.08763   9.30242  1.38927451360966  
2457078.916666667      21.00602   9.65996  1.38978363467349  
2457079.916666667      21.92623  10.01503  1.39028348361129  
2457080.916666667      22.84830  10.36752  1.39077423670960  
2457081.916666667      23.77228  10.71735  1.39125608633222  
2457082.916666667      24.69826  11.06437  1.39172958226663  
2457083.916666667      25.62626  11.40856  1.39219421791730  
2457084.916666667      26.55635  11.74979  1.39265053369897  
2457085.916666667      27.48859  12.08797  1.39309870957087  
2457086.916666667      28.42304  12.42299  1.39353891244837  
2457087.916666667      29.35974  12.75477  1.39397129049283  
2457088.916666667      30.29877  13.08321  1.39439596885369  
2457089.916666667      31.24016  13.40821  1.39481304660096  
2457090.916666667      32.18398  13.72968  1.39522259229317  
2457091.916666667      33.13027  14.04754  1.39562463944871  
2457092.916666667      34.07909  14.36168  1.39601918565291  
2457093.916666667      35.03048  14.67201  1.39640618032371  
2457094.916666667      35.98448  14.97844  1.39678552652361  
2457095.916666667      36.94115  15.28088  1.39715707434675  
2457096.916666667      37.90051  15.57924  1.39752061101364  
2457097.916666667      38.86261  15.87341  1.39787585965042  
2457098.916666667      39.82746  16.16332  1.39822248382527  
